[
  {
    "OBJECT_NAME": "STARLINK-31223",
    "OBJECT_ID": "24019N",
    "EPOCH": "2025-11-11T02:06:50.535360",
    "MEAN_MOTION": 15.27585976,
    "ECCENTRICITY": 9.51e-05,
    "INCLINATION": 42.9988,
    "RA_OF_ASC_NODE": 198.7462,
    "ARG_OF_PERICENTER": 267.3198,
    "MEAN_ANOMALY": 92.7545,
    "EPHEMERIS_TYPE": 0,
    "CLASSIFICATION_TYPE": "U",
    "NORAD_CAT_ID": 58865,
    "ELEMENT_SET_NO": 999,
    "REV_AT_EPOCH": 10092,
    "BSTAR": 0.00011033999999999999,
    "MEAN_MOTION_DOT": 2.776e-05,
    "MEAN_MOTION_DDOT": 0.0,
    "TLE_LINE1": "1 58865U 24019N   25315.08808490  .00002776  00000+0  11034-3 0  9994",
    "TLE_LINE2": "2 58865  42.9988 198.7462 0000951 267.3198  92.7545 15.27585976100921",
    "COMMENT": "Grouped by shell and plane from TLE"
  },
  {
    "OBJECT_NAME": "STARLINK-31219",
    "OBJECT_ID": "24019P",
    "EPOCH": "2025-11-11T01:31:41.407680",
    "MEAN_MOTION": 15.27603736,
    "ECCENTRICITY": 3.41e-05,
    "INCLINATION": 42.9964,
    "RA_OF_ASC_NODE": 198.5628,
    "ARG_OF_PERICENTER": 5.033,
    "MEAN_ANOMALY": 355.0525,
    "EPHEMERIS_TYPE": 0,
    "CLASSIFICATION_TYPE": "U",
    "NORAD_CAT_ID": 58866,
    "ELEMENT_SET_NO": 999,
    "REV_AT_EPOCH": 10092,
    "BSTAR": 0.00033750999999999996,
    "MEAN_MOTION_DOT": 9.044e-05,
    "MEAN_MOTION_DDOT": 0.0,
    "TLE_LINE1": "1 58866U 24019P   25315.06367370  .00009044  00000+0  33751-3 0  9995",
    "TLE_LINE2": "2 58866  42.9964 198.5628 0000341   5.0330 355.0525 15.27603736100924",
    "COMMENT": "Grouped by shell and plane from TLE"
  },
  {
    "OBJECT_NAME": "STARLINK-31198",
    "OBJECT_ID": "24019Q",
    "EPOCH": "2025-11-11T01:44:36.521952",
    "MEAN_MOTION": 15.27603041,
    "ECCENTRICITY": 5.93e-05,
    "INCLINATION": 43.0014,
    "RA_OF_ASC_NODE": 198.6025,
    "ARG_OF_PERICENTER": 243.831,
    "MEAN_ANOMALY": 116.248,
    "EPHEMERIS_TYPE": 0,
    "CLASSIFICATION_TYPE": "U",
    "NORAD_CAT_ID": 58867,
    "ELEMENT_SET_NO": 999,
    "REV_AT_EPOCH": 10092,
    "BSTAR": 0.00018795999999999998,
    "MEAN_MOTION_DOT": 4.917e-05,
    "MEAN_MOTION_DDOT": 0.0,
    "TLE_LINE1": "1 58867U 24019Q   25315.07264493  .00004917  00000+0  18796-3 0  9995",
    "TLE_LINE2": "2 58867  43.0014 198.6025 0000593 243.8310 116.2480 15.27603041100920",
    "COMMENT": "Grouped by shell and plane from TLE"
  },
  {
    "OBJECT_NAME": "STARLINK-31196",
    "OBJECT_ID": "24019R",
    "EPOCH": "2025-11-11T01:07:49.760544",
    "MEAN_MOTION": 15.27603625,
    "ECCENTRICITY": 0.0001861,
    "INCLINATION": 43.0041,
    "RA_OF_ASC_NODE": 199.2884,
    "ARG_OF_PERICENTER": 279.7705,
    "MEAN_ANOMALY": 80.2936,
    "EPHEMERIS_TYPE": 0,
    "CLASSIFICATION_TYPE": "U",
    "NORAD_CAT_ID": 58868,
    "ELEMENT_SET_NO": 999,
    "REV_AT_EPOCH": 10091,
    "BSTAR": 0.0,
    "MEAN_MOTION_DOT": -2.529e-05,
    "MEAN_MOTION_DDOT": 0.0,
    "TLE_LINE1": "1 58868U 24019R   25315.04710371 -.00002529  00000+0 -82349-4 0  9999",
    "TLE_LINE2": "2 58868  43.0041 199.2884 0001861 279.7705  80.2936 15.27603625100919",
    "COMMENT": "Grouped by shell and plane from TLE"
  },
  {
    "OBJECT_NAME": "STARLINK-31203",
    "OBJECT_ID": "24019S",
    "EPOCH": "2025-11-11T01:49:01.483968",
    "MEAN_MOTION": 15.27592044,
    "ECCENTRICITY": 0.0001323,
    "INCLINATION": 43.0031,
    "RA_OF_ASC_NODE": 195.1555,
    "ARG_OF_PERICENTER": 292.5688,
    "MEAN_ANOMALY": 67.5023,
    "EPHEMERIS_TYPE": 0,
    "CLASSIFICATION_TYPE": "U",
    "NORAD_CAT_ID": 58869,
    "ELEMENT_SET_NO": 999,
    "REV_AT_EPOCH": 10098,
    "BSTAR": 0.00014458,
    "MEAN_MOTION_DOT": 3.72e-05,
    "MEAN_MOTION_DDOT": 0.0,
    "TLE_LINE1": "1 58869U 24019S   25315.07571162  .00003720  00000+0  14458-3 0  9993",
    "TLE_LINE2": "2 58869  43.0031 195.1555 0001323 292.5688  67.5023 15.27592044100989",
    "COMMENT": "Grouped by shell and plane from TLE"
  },
  {
    "OBJECT_NAME": "STARLINK-31201",
    "OBJECT_ID": "24019T",
    "EPOCH": "2025-11-11T01:20:34.442016",
    "MEAN_MOTION": 15.27600672,
    "ECCENTRICITY": 5.17e-05,
    "INCLINATION": 42.9992,
    "RA_OF_ASC_NODE": 198.503,
    "ARG_OF_PERICENTER": 289.7913,
    "MEAN_ANOMALY": 70.2883,
    "EPHEMERIS_TYPE": 0,
    "CLASSIFICATION_TYPE": "U",
    "NORAD_CAT_ID": 58870,
    "ELEMENT_SET_NO": 999,
    "REV_AT_EPOCH": 10092,
    "BSTAR": 7.7032e-05,
    "MEAN_MOTION_DOT": 1.86e-05,
    "MEAN_MOTION_DDOT": 0.0,
    "TLE_LINE1": "1 58870U 24019T   25315.05595419  .00001860  00000+0  77032-4 0  9995",
    "TLE_LINE2": "2 58870  42.9992 198.5030 0000517 289.7913  70.2883 15.27600672100929",
    "COMMENT": "Grouped by shell and plane from TLE"
  },
  {
    "OBJECT_NAME": "STARLINK-31214",
    "OBJECT_ID": "24019U",
    "EPOCH": "2025-11-11T00:04:55.021440",
    "MEAN_MOTION": 15.27577419,
    "ECCENTRICITY": 0.0001488,
    "INCLINATION": 42.9995,
    "RA_OF_ASC_NODE": 198.954,
    "ARG_OF_PERICENTER": 272.8288,
    "MEAN_ANOMALY": 87.2394,
    "EPHEMERIS_TYPE": 0,
    "CLASSIFICATION_TYPE": "U",
    "NORAD_CAT_ID": 58871,
    "ELEMENT_SET_NO": 999,
    "REV_AT_EPOCH": 10091,
    "BSTAR": 0.0,
    "MEAN_MOTION_DOT": -5.92e-06,
    "MEAN_MOTION_DDOT": 0.0,
    "TLE_LINE1": "1 58871U 24019U   25315.00341460 -.00000592  00000+0 -11983-4 0  9992",
    "TLE_LINE2": "2 58871  42.9995 198.9540 0001488 272.8288  87.2394 15.27577419100915",
    "COMMENT": "Grouped by shell and plane from TLE"
  },
  {
    "OBJECT_NAME": "STARLINK-31215",
    "OBJECT_ID": "24019V",
    "EPOCH": "2025-11-11T01:42:46.574496",
    "MEAN_MOTION": 15.27591752,
    "ECCENTRICITY": 8.3e-05,
    "INCLINATION": 43.0009,
    "RA_OF_ASC_NODE": 198.6174,
    "ARG_OF_PERICENTER": 266.5939,
    "MEAN_ANOMALY": 93.4818,
    "EPHEMERIS_TYPE": 0,
    "CLASSIFICATION_TYPE": "U",
    "NORAD_CAT_ID": 58872,
    "ELEMENT_SET_NO": 999,
    "REV_AT_EPOCH": 10092,
    "BSTAR": 0.00016916,
    "MEAN_MOTION_DOT": 4.398e-05,
    "MEAN_MOTION_DDOT": 0.0,
    "TLE_LINE1": "1 58872U 24019V   25315.07137239  .00004398  00000+0  16916-3 0  9993",
    "TLE_LINE2": "2 58872  43.0009 198.6174 0000830 266.5939  93.4818 15.27591752100924",
    "COMMENT": "Grouped by shell and plane from TLE"
  },
  {
    "OBJECT_NAME": "STARLINK-31177",
    "OBJECT_ID": "24019W",
    "EPOCH": "2025-11-11T01:35:23.426304",
    "MEAN_MOTION": 15.27587471,
    "ECCENTRICITY": 4.85e-05,
    "INCLINATION": 42.9978,
    "RA_OF_ASC_NODE": 198.5762,
    "ARG_OF_PERICENTER": 270.7136,
    "MEAN_ANOMALY": 89.366,
    "EPHEMERIS_TYPE": 0,
    "CLASSIFICATION_TYPE": "U",
    "NORAD_CAT_ID": 58873,
    "ELEMENT_SET_NO": 999,
    "REV_AT_EPOCH": 10094,
    "BSTAR": 0.0002988,
    "MEAN_MOTION_DOT": 7.971e-05,
    "MEAN_MOTION_DDOT": 0.0,
    "TLE_LINE1": "1 58873U 24019W   25315.06624336  .00007971  00000+0  29880-3 0  9996",
    "TLE_LINE2": "2 58873  42.9978 198.5762 0000485 270.7136  89.3660 15.27587471100946",
    "COMMENT": "Grouped by shell and plane from TLE"
  },
  {
    "OBJECT_NAME": "STARLINK-30945",
    "OBJECT_ID": "24019X",
    "EPOCH": "2025-11-11T00:49:20.299872",
    "MEAN_MOTION": 15.27593723,
    "ECCENTRICITY": 9.22e-05,
    "INCLINATION": 42.9968,
    "RA_OF_ASC_NODE": 199.1794,
    "ARG_OF_PERICENTER": 299.4916,
    "MEAN_ANOMALY": 60.5843,
    "EPHEMERIS_TYPE": 0,
    "CLASSIFICATION_TYPE": "U",
    "NORAD_CAT_ID": 58874,
    "ELEMENT_SET_NO": 999,
    "REV_AT_EPOCH": 10093,
    "BSTAR": 0.00021246,
    "MEAN_MOTION_DOT": 5.591e-05,
    "MEAN_MOTION_DDOT": 0.0,
    "TLE_LINE1": "1 58874U 24019X   25315.03426273  .00005591  00000+0  21246-3 0  9998",
    "TLE_LINE2": "2 58874  42.9968 199.1794 0000922 299.4916  60.5843 15.27593723100938",
    "COMMENT": "Grouped by shell and plane from TLE"
  },
  {
    "OBJECT_NAME": "STARLINK-31212",
    "OBJECT_ID": "24019Y",
    "EPOCH": "2025-11-11T01:26:08.738304",
    "MEAN_MOTION": 15.2758284,
    "ECCENTRICITY": 1.94e-05,
    "INCLINATION": 42.9977,
    "RA_OF_ASC_NODE": 198.5279,
    "ARG_OF_PERICENTER": 104.2439,
    "MEAN_ANOMALY": 255.8434,
    "EPHEMERIS_TYPE": 0,
    "CLASSIFICATION_TYPE": "U",
    "NORAD_CAT_ID": 58875,
    "ELEMENT_SET_NO": 999,
    "REV_AT_EPOCH": 10092,
    "BSTAR": 0.00011243,
    "MEAN_MOTION_DOT": 2.834e-05,
    "MEAN_MOTION_DDOT": 0.0,
    "TLE_LINE1": "1 58875U 24019Y   25315.05982336  .00002834  00000+0  11243-3 0  9991",
    "TLE_LINE2": "2 58875  42.9977 198.5279 0000194 104.2439 255.8434 15.27582840100926",
    "COMMENT": "Grouped by shell and plane from TLE"
  },
  {
    "OBJECT_NAME": "STARLINK-31605",
    "OBJECT_ID": "24060A",
    "EPOCH": "2025-11-11T01:29:59.279424",
    "MEAN_MOTION": 15.27589347,
    "ECCENTRICITY": 7.91e-05,
    "INCLINATION": 42.9996,
    "RA_OF_ASC_NODE": 199.1368,
    "ARG_OF_PERICENTER": 287.5247,
    "MEAN_ANOMALY": 72.5518,
    "EPHEMERIS_TYPE": 0,
    "CLASSIFICATION_TYPE": "U",
    "NORAD_CAT_ID": 59348,
    "ELEMENT_SET_NO": 999,
    "REV_AT_EPOCH": 9198,
    "BSTAR": 7.116e-05,
    "MEAN_MOTION_DOT": 1.697e-05,
    "MEAN_MOTION_DDOT": 0.0,
    "TLE_LINE1": "1 59348U 24060A   25315.06249166  .00001697  00000+0  71160-4 0  9992",
    "TLE_LINE2": "2 59348  42.9996 199.1368 0000791 287.5247  72.5518 15.27589347 91985",
    "COMMENT": "Grouped by shell and plane from TLE"
  },
  {
    "OBJECT_NAME": "STARLINK-31547",
    "OBJECT_ID": "24060S",
    "EPOCH": "2025-11-11T01:48:15.901056",
    "MEAN_MOTION": 15.27589146,
    "ECCENTRICITY": 0.0001296,
    "INCLINATION": 43.0036,
    "RA_OF_ASC_NODE": 198.363,
    "ARG_OF_PERICENTER": 267.0565,
    "MEAN_ANOMALY": 93.0139,
    "EPHEMERIS_TYPE": 0,
    "CLASSIFICATION_TYPE": "U",
    "NORAD_CAT_ID": 59364,
    "ELEMENT_SET_NO": 999,
    "REV_AT_EPOCH": 9205,
    "BSTAR": 8.410600000000001e-05,
    "MEAN_MOTION_DOT": 2.054e-05,
    "MEAN_MOTION_DDOT": 0.0,
    "TLE_LINE1": "1 59364U 24060S   25315.07518404  .00002054  00000+0  84106-4 0  9997",
    "TLE_LINE2": "2 59364  43.0036 198.3630 0001296 267.0565  93.0139 15.27589146 92053",
    "COMMENT": "Grouped by shell and plane from TLE"
  }
]